NORAD_CAT_ID,OBJECT_NAME,OBJECT_TYPE,EPOCH,MEAN_MOTION,ECCENTRICITY,INCLINATION,RA_OF_ASC_NODE,ARG_OF_PERICENTER,MEAN_ANOMALY,BSTAR,MEAN_MOTION_DOT,MEAN_MOTION_DDOT,TLE_LINE0,TLE_LINE1,TLE_LINE2,SEMIMAJOR_AXIS,PERIOD,APOGEE,PERIGEE,DECAYED
53920.0,STARLINK-5025,PAYLOAD,2024-07-25 16:49:25,15.08832504,0.0001558,53.2167,91.7234,116.2295,243.8857,0.00014187,1.97e-05,0.0,0 STARLINK-5025,1 53920U 22119AL  24207.70099220  .00001970  00000-0  14187-3 0  9999,2 53920  53.2167  91.7234 0001558 116.2295 243.8857 15.08832504102035,6917.903,95.438,540.846,538.69,0.0
53920.0,STARLINK-5025,PAYLOAD,2024-07-25 23:10:58,15.0882878,9.65e-05,53.2157,90.5357,109.6427,250.4669,0.00010888,1.445e-05,0.0,0 STARLINK-5025,1 53920U 22119AL  24207.96595586  .00001445  00000-0  10888-3 0  9994,2 53920  53.2157  90.5357 0000965 109.6427 250.4669 15.08828780102071,6917.915,95.438,540.447,539.112,0.0
53920.0,STARLINK-5025,PAYLOAD,2024-07-26 08:43:17,15.08840613,0.000137,53.2192,88.7561,92.0397,268.0752,0.00012578,1.714e-05,0.0,0 STARLINK-5025,1 53920U 22119AL  24208.36339148  .00001714  00000-0  12578-3 0  9996,2 53920  53.2192  88.7561 0001370  92.0397 268.0752 15.08840613102558,6917.879,95.438,540.691,538.796,0.0
53920.0,STARLINK-5025,PAYLOAD,2024-07-26 16:40:13,15.08849399,0.0001557,53.2195,87.2718,84.0868,276.0302,-9.1186e-05,-1.739e-05,0.0,0 STARLINK-5025,1 53920U 22119AL  24208.69459618 -.00001739  00000-0 -91186-4 0  9999,2 53920  53.2195  87.2718 0001557  84.0868 276.0302 15.08849399102189,6917.852,95.437,540.794,538.64,0.0
53920.0,STARLINK-5025,PAYLOAD,2024-07-27 21:17:07,15.08940067,9.03e-05,53.2194,81.9194,133.8343,226.2724,-0.0013626,-0.00021967,0.0,0 STARLINK-5025,1 53920U 22119AL  24209.88689654 -.00021967  00000-0 -13626-2 0  9992,2 53920  53.2194  81.9194 0000903 133.8343 226.2724 15.08940067102787,6917.575,95.431,540.064,538.815,0.0
53920.0,STARLINK-5025,PAYLOAD,2024-07-27 22:52:33,15.08831318,0.0001341,53.2174,81.6182,97.8121,262.3024,4.3864e-05,4.1e-06,0.0,0 STARLINK-5025,1 53920U 22119AL  24209.95316164  .00000410  00000-0  43864-4 0  9990,2 53920  53.2174  81.6182 0001341  97.8121 262.3024 15.08831318102376,6917.907,95.438,540.7,538.844,0.0
53920.0,STARLINK-5025,PAYLOAD,2024-07-28 22:43:20,15.0883693,0.0001485,53.2177,77.158,87.0909,273.0253,4.9218e-05,4.95e-06,0.0,0 STARLINK-5025,1 53920U 22119AL  24210.94676342  .00000495  00000-0  49218-4 0  9990,2 53920  53.2177  77.1580 0001485  87.0909 273.0253 15.08836930102946,6917.89,95.438,540.782,538.727,0.0
53920.0,STARLINK-5025,PAYLOAD,2024-07-29 08:15:38,15.08844163,0.000154,53.2179,75.3713,80.5704,279.5462,0.00018357,2.635e-05,0.0,0 STARLINK-5025,1 53920U 22119AL  24211.34419349  .00002635  00000-0  18357-3 0  9994,2 53920  53.2179  75.3713 0001540  80.5704 279.5462 15.08844163102589,6917.868,95.437,540.798,538.667,0.0
53920.0,STARLINK-5025,PAYLOAD,2024-07-29 20:58:44,15.08833169,0.0001127,53.218,72.9941,84.8387,275.2734,7.8195e-05,9.57e-06,0.0,0 STARLINK-5025,1 53920U 22119AL  24211.87412400  .00000957  00000-0  78195-4 0  9995,2 53920  53.2180  72.9941 0001127  84.8387 275.2734 15.08833169102660,6917.901,95.438,540.546,538.987,0.0
53920.0,STARLINK-5025,PAYLOAD,2024-07-29 22:34:06,15.0884584,0.0001436,53.2179,72.6971,84.3632,275.7523,0.0001861,2.676e-05,0.0,0 STARLINK-5025,1 53920U 22119AL  24211.94035444  .00002676  00000-0  18610-3 0  9997,2 53920  53.2179  72.6971 0001436  84.3632 275.7523 15.08845840103097,6917.863,95.437,540.721,538.734,0.0
53920.0,STARLINK-5025,PAYLOAD,2024-07-30 08:06:25,15.08847446,0.0001441,53.218,70.9131,84.4516,275.6641,0.00018043,2.585e-05,0.0,0 STARLINK-5025,1 53920U 22119AL  24212.33779246  .00002585  00000-0  18043-3 0  9995,2 53920  53.2180  70.9131 0001441  84.4516 275.6641 15.08847446103157,6917.858,95.437,540.719,538.726,0.0
53920.0,STARLINK-5025,PAYLOAD,2024-07-30 20:49:30,15.08840782,0.0001604,53.2188,68.5326,91.3745,268.7431,7.7491e-05,9.45e-06,0.0,0 STARLINK-5025,1 53920U 22119AL  24212.86771875  .00000945  00000-0  77491-4 0  9994,2 53920  53.2188  68.5326 0001604  91.3745 268.7431 15.08840782102814,6917.878,95.438,540.853,538.633,0.0
53920.0,STARLINK-5025,PAYLOAD,2024-07-31 07:57:12,15.08848917,0.0001591,53.2174,66.4496,90.0298,270.0876,7.4048e-06,-1.7e-06,0.0,0 STARLINK-5025,1 53920U 22119AL  24213.33139346 -.00000170  00000-0  74048-5 0  9995,2 53920  53.2174  66.4496 0001591  90.0298 270.0876 15.08848917103300,6917.853,95.437,540.819,538.618,0.0
53920.0,STARLINK-5025,PAYLOAD,2024-07-31 20:40:18,15.08804182,0.0001309,53.2185,64.0706,103.1736,256.9402,0.00032096,4.819e-05,0.0,0 STARLINK-5025,1 53920U 22119AL  24213.86132919  .00004819  00000-0  32096-3 0  9990,2 53920  53.2185  64.0706 0001309 103.1736 256.9402 15.08804182102965,6917.99,95.44,540.76,538.949,0.0
53920.0,STARLINK-5025,PAYLOAD,2024-08-01 20:31:03,15.08886998,0.0001382,53.2186,59.6111,101.1028,259.012,-0.00043251,-7.174e-05,0.0,0 STARLINK-5025,1 53920U 22119AL  24214.85490578 -.00007174  00000-0 -43251-3 0  9992,2 53920  53.2186  59.6111 0001382 101.1028 259.0120 15.08886998103113,6917.737,95.435,540.558,538.646,0.0
53920.0,STARLINK-5025,PAYLOAD,2024-08-02 14:00:19,15.08830459,0.0001315,53.2179,56.3435,76.847,283.2668,0.00016856,2.395e-05,0.0,0 STARLINK-5025,1 53920U 22119AL  24215.58356116  .00002395  00000-0  16856-3 0  9991,2 53920  53.2179  56.3435 0001315  76.8470 283.2668 15.08830459103648,6917.91,95.438,540.684,538.865,0.0
53920.0,STARLINK-5025,PAYLOAD,2024-08-02 20:21:52,15.08829632,0.0001215,53.2173,55.1505,84.1424,275.9707,3.2328e-05,2.27e-06,0.0,0 STARLINK-5025,1 53920U 22119AL  24215.84852875  .00000227  00000-0  32328-4 0  9998,2 53920  53.2173  55.1505 0001215  84.1424 275.9707 15.08829632103268,6917.912,95.438,540.618,538.937,0.0
53920.0,STARLINK-5025,PAYLOAD,2024-08-03 05:54:11,15.08836211,0.0001293,53.2184,53.3688,92.2996,267.8144,4.8928e-05,4.91e-06,0.0,0 STARLINK-5025,1 53920U 22119AL  24216.24596585  .00000491  00000-0  48928-4 0  9992,2 53920  53.2184  53.3688 0001293  92.2996 267.8144 15.08836211103325,6917.892,95.438,540.651,538.862,0.0
53920.0,STARLINK-5025,PAYLOAD,2024-08-03 13:51:07,15.08839689,0.0001363,53.2186,51.8825,98.4563,261.6584,-1.4941e-05,-5.26e-06,0.0,0 STARLINK-5025,1 53920U 22119AL  24216.57716717 -.00000526  00000-0 -14941-4 0  9998,2 53920  53.2186  51.8825 0001363  98.4563 261.6584 15.08839689103792,6917.881,95.438,540.689,538.803,0.0
53920.0,STARLINK-5025,PAYLOAD,2024-08-03 20:12:39,15.08847515,0.000143,53.2192,50.6942,100.1443,259.971,6.1594e-05,6.93e-06,0.0,0 STARLINK-5025,1 53920U 22119AL  24216.84212054  .00000693  00000-0  61594-4 0  9992,2 53920  53.2192  50.6942 0001430 100.1443 259.9710 15.08847515103416,6917.857,95.437,540.712,538.733,0.0
53920.0,STARLINK-5025,PAYLOAD,2024-08-04 05:44:57,15.08857766,0.0001425,53.2182,48.9082,89.1198,270.9957,0.00026697,3.965e-05,0.0,0 STARLINK-5025,1 53920U 22119AL  24217.23955313  .00003965  00000-0  26697-3 0  9997,2 53920  53.2182  48.9082 0001425  89.1198 270.9957 15.08857766103478,6917.826,95.436,540.677,538.705,0.0
53920.0,STARLINK-5025,PAYLOAD,2024-08-04 20:03:26,15.08839694,0.0001561,53.218,46.2315,84.0939,276.0231,0.00020188,2.926e-05,0.0,0 STARLINK-5025,1 53920U 22119AL  24217.83572627  .00002926  00000-0  20188-3 0  9991,2 53920  53.2180  46.2315 0001561  84.0939 276.0231 15.08839694103566,6917.881,95.438,540.826,538.666,0.0
53920.0,STARLINK-5025,PAYLOAD,2024-08-04 21:38:49,15.08846045,0.0001579,53.2179,45.9326,74.0413,286.0753,0.00033916,5.115e-05,0.0,0 STARLINK-5025,1 53920U 22119AL  24217.90196436  .00005115  00000-0  33916-3 0  9995,2 53920  53.2179  45.9326 0001579  74.0413 286.0753 15.08846045103992,6917.862,95.437,540.819,538.635,0.0
53920.0,STARLINK-5025,PAYLOAD,2024-08-05 05:35:45,15.08852978,0.0001559,53.218,44.4482,82.3435,277.7734,0.00036467,5.523e-05,0.0,0 STARLINK-5025,1 53920U 22119AL  24218.23316038  .00005523  00000-0  36467-3 0  9991,2 53920  53.2180  44.4482 0001559  82.3435 277.7734 15.08852978103623,6917.841,95.437,540.784,538.627,0.0
53920.0,STARLINK-5025,PAYLOAD,2024-08-05 19:54:13,15.08828766,0.0001432,53.217,41.7705,97.6512,262.4643,0.00050975,7.832e-05,0.0,0 STARLINK-5025,1 53920U 22119AL  24218.82932854  .00007832  00000-0  50975-3 0  9991,2 53920  53.2170  41.7705 0001432  97.6512 262.4643 15.08828766103713,6917.915,95.438,540.77,538.789,0.0
53920.0,STARLINK-5025,PAYLOAD,2024-08-06 05:26:32,15.08843924,0.0001402,53.2167,39.9865,89.7569,270.3584,0.00097716,0.00015299,0.0,0 STARLINK-5025,1 53920U 22119AL  24219.22676928  .00015299  00000-0  97716-3 0  9993,2 53920  53.2167  39.9865 0001402  89.7569 270.3584 15.08843924104194,6917.868,95.437,540.703,538.764,0.0
53920.0,STARLINK-5025,PAYLOAD,2024-08-06 19:45:01,15.08840648,0.0001365,53.2168,37.3057,99.6759,260.4388,0.000398,6.052e-05,0.0,0 STARLINK-5025,1 53920U 22119AL  24219.82293129  .00006052  00000-0  39800-3 0  9994,2 53920  53.2168  37.3057 0001365  99.6759 260.4388 15.08840648104281,6917.878,95.438,540.688,538.799,0.0
53920.0,STARLINK-5025,PAYLOAD,2024-08-07 11:38:52,15.08854827,0.0001417,53.2168,34.3356,90.0678,270.0476,0.00064332,9.969e-05,0.0,0 STARLINK-5025,1 53920U 22119AL  24220.48532856  .00009969  00000-0  64332-3 0  9999,2 53920  53.2168  34.3356 0001417  90.0678 270.0476 15.08854827103966,6917.835,95.437,540.68,538.72,0.0
53920.0,STARLINK-5025,PAYLOAD,2024-08-07 18:00:24,15.08844929,0.0001006,53.2171,33.1485,52.3125,307.7958,0.00040067,6.095e-05,0.0,0 STARLINK-5025,1 53920U 22119AL  24220.75028889  .00006095  00000-0  40067-3 0  9991,2 53920  53.2171  33.1485 0001006  52.3125 307.7958 15.08844929104003,6917.865,95.437,540.426,539.034,0.0
53920.0,STARLINK-5025,PAYLOAD,2024-08-08 21:01:59,15.08859029,0.000121,53.2186,28.087,69.8116,290.3006,0.0017099,0.00027044,0.0,0 STARLINK-5025,1 53920U 22119AL  24221.87637843  .00027044  00000-0  17099-2 0  9996,2 53920  53.2186  28.0870 0001210  69.8116 290.3006 15.08859029104176,6917.822,95.436,540.524,538.85,0.0
